[{"CCSDS_OMM_VERS":"3.0","COMMENT":"GENERATED VIA SPACE-TRACK.ORG API","CREATION_DATE":"2026-06-03T22:56:36","ORIGINATOR":"18 SPCS","OBJECT_NAME":"QZS-2","OBJECT_ID":"2017-028A","CENTER_NAME":"EARTH","REF_FRAME":"TEME","TIME_SYSTEM":"UTC","MEAN_ELEMENT_THEORY":"SGP4","EPOCH":"2026-06-03T14:37:16.987296","MEAN_MOTION":"1.00287507","ECCENTRICITY":"0.07595900","INCLINATION":"39.4485","RA_OF_ASC_NODE":"243.3546","ARG_OF_PERICENTER":"269.1264","MEAN_ANOMALY":"100.0088","EPHEMERIS_TYPE":"0","CLASSIFICATION_TYPE":"U","NORAD_CAT_ID":"42738","ELEMENT_SET_NO":"999","REV_AT_EPOCH":"749","BSTAR":"0.00000000000000","MEAN_MOTION_DOT":"-0.00000158","MEAN_MOTION_DDOT":"0.0000000000000","SEMIMAJOR_AXIS":"42160.325","PERIOD":"1435.872","APOAPSIS":"38984.646","PERIAPSIS":"32579.734","OBJECT_TYPE":"PAYLOAD","RCS_SIZE":"LARGE","COUNTRY_CODE":"JPN","LAUNCH_DATE":"2017-06-01","SITE":"TNSTA","DECAY_DATE":null,"FILE":"5229234","GP_ID":"326975545","TLE_LINE0":"0 QZS-2","TLE_LINE1":"1 42738U 17028A   26154.60922439 -.00000158  00000-0  00000+0 0  9999","TLE_LINE2":"2 42738  39.4485 243.3546 0759590 269.1264 100.0088  1.00287507  7498"},{"CCSDS_OMM_VERS":"3.0","COMMENT":"GENERATED VIA SPACE-TRACK.ORG API","CREATION_DATE":"2026-06-05T08:06:49","ORIGINATOR":"18 SPCS","OBJECT_NAME":"QZS-2","OBJECT_ID":"2017-028A","CENTER_NAME":"EARTH","REF_FRAME":"TEME","TIME_SYSTEM":"UTC","MEAN_ELEMENT_THEORY":"SGP4","EPOCH":"2026-06-04T12:56:27.116736","MEAN_MOTION":"1.00287296","ECCENTRICITY":"0.07606630","INCLINATION":"39.4467","RA_OF_ASC_NODE":"243.3410","ARG_OF_PERICENTER":"269.1234","MEAN_ANOMALY":"75.7690","EPHEMERIS_TYPE":"0","CLASSIFICATION_TYPE":"U","NORAD_CAT_ID":"42738","ELEMENT_SET_NO":"999","REV_AT_EPOCH":"749","BSTAR":"0.00000000000000","MEAN_MOTION_DOT":"-0.00000155","MEAN_MOTION_DDOT":"0.0000000000000","SEMIMAJOR_AXIS":"42160.384","PERIOD":"1435.875","APOAPSIS":"38989.234","PERIAPSIS":"32575.265","OBJECT_TYPE":"PAYLOAD","RCS_SIZE":"LARGE","COUNTRY_CODE":"JPN","LAUNCH_DATE":"2017-06-01","SITE":"TNSTA","DECAY_DATE":null,"FILE":"5230559","GP_ID":"327196271","TLE_LINE0":"0 QZS-2","TLE_LINE1":"1 42738U 17028A   26155.53920274 -.00000155  00000-0  00000+0 0  9994","TLE_LINE2":"2 42738  39.4467 243.3410 0760663 269.1234  75.7690  1.00287296  7490"},{"CCSDS_OMM_VERS":"3.0","COMMENT":"GENERATED VIA SPACE-TRACK.ORG API","CREATION_DATE":"2026-06-05T02:58:45","ORIGINATOR":"18 SPCS","OBJECT_NAME":"QZS-2","OBJECT_ID":"2017-028A","CENTER_NAME":"EARTH","REF_FRAME":"TEME","TIME_SYSTEM":"UTC","MEAN_ELEMENT_THEORY":"SGP4","EPOCH":"2026-06-04T12:56:27.117600","MEAN_MOTION":"1.00287296","ECCENTRICITY":"0.07606634","INCLINATION":"39.4467","RA_OF_ASC_NODE":"243.3410","ARG_OF_PERICENTER":"269.1234","MEAN_ANOMALY":"75.7690","EPHEMERIS_TYPE":"0","CLASSIFICATION_TYPE":"U","NORAD_CAT_ID":"42738","ELEMENT_SET_NO":"999","REV_AT_EPOCH":"749","BSTAR":"0.00000000000000","MEAN_MOTION_DOT":"-0.00000155","MEAN_MOTION_DDOT":"0.0000000000000","SEMIMAJOR_AXIS":"42160.384","PERIOD":"1435.875","APOAPSIS":"38989.235","PERIAPSIS":"32575.263","OBJECT_TYPE":"PAYLOAD","RCS_SIZE":"LARGE","COUNTRY_CODE":"JPN","LAUNCH_DATE":"2017-06-01","SITE":"TNSTA","DECAY_DATE":null,"FILE":"5230353","GP_ID":"327159096","TLE_LINE0":"0 QZS-2","TLE_LINE1":"1 42738U 17028A   26155.53920275 -.00000155  00000-0  00000-0 0  9996","TLE_LINE2":"2 42738  39.4467 243.3410 0760663 269.1234  75.7690  1.00287296  7490"},{"CCSDS_OMM_VERS":"3.0","COMMENT":"GENERATED VIA SPACE-TRACK.ORG API","CREATION_DATE":"2026-06-05T20:06:26","ORIGINATOR":"18 SPCS","OBJECT_NAME":"QZS-2","OBJECT_ID":"2017-028A","CENTER_NAME":"EARTH","REF_FRAME":"TEME","TIME_SYSTEM":"UTC","MEAN_ELEMENT_THEORY":"SGP4","EPOCH":"2026-06-05T12:36:28.613952","MEAN_MOTION":"1.00287038","ECCENTRICITY":"0.07605890","INCLINATION":"39.4451","RA_OF_ASC_NODE":"243.3264","ARG_OF_PERICENTER":"269.1343","MEAN_ANOMALY":"71.7999","EPHEMERIS_TYPE":"0","CLASSIFICATION_TYPE":"U","NORAD_CAT_ID":"42738","ELEMENT_SET_NO":"999","REV_AT_EPOCH":"750","BSTAR":"0.00000000000000","MEAN_MOTION_DOT":"-0.00000153","MEAN_MOTION_DDOT":"0.0000000000000","SEMIMAJOR_AXIS":"42160.457","PERIOD":"1435.878","APOAPSIS":"38988.999","PERIAPSIS":"32575.644","OBJECT_TYPE":"PAYLOAD","RCS_SIZE":"LARGE","COUNTRY_CODE":"JPN","LAUNCH_DATE":"2017-06-01","SITE":"TNSTA","DECAY_DATE":null,"FILE":"5231311","GP_ID":"327301797","TLE_LINE0":"0 QZS-2","TLE_LINE1":"1 42738U 17028A   26156.52533118 -.00000153  00000-0  00000+0 0  9999","TLE_LINE2":"2 42738  39.4451 243.3264 0760589 269.1343  71.7999  1.00287038  7502"},{"CCSDS_OMM_VERS":"3.0","COMMENT":"GENERATED VIA SPACE-TRACK.ORG API","CREATION_DATE":"2026-06-06T04:26:37","ORIGINATOR":"18 SPCS","OBJECT_NAME":"QZS-2","OBJECT_ID":"2017-028A","CENTER_NAME":"EARTH","REF_FRAME":"TEME","TIME_SYSTEM":"UTC","MEAN_ELEMENT_THEORY":"SGP4","EPOCH":"2026-06-05T12:36:28.614816","MEAN_MOTION":"1.00287038","ECCENTRICITY":"0.07605892","INCLINATION":"39.4451","RA_OF_ASC_NODE":"243.3265","ARG_OF_PERICENTER":"269.1343","MEAN_ANOMALY":"71.7999","EPHEMERIS_TYPE":"0","CLASSIFICATION_TYPE":"U","NORAD_CAT_ID":"42738","ELEMENT_SET_NO":"999","REV_AT_EPOCH":"750","BSTAR":"0.00000000000000","MEAN_MOTION_DOT":"-0.00000153","MEAN_MOTION_DDOT":"0.0000000000000","SEMIMAJOR_AXIS":"42160.456","PERIOD":"1435.878","APOAPSIS":"38989.000","PERIAPSIS":"32575.643","OBJECT_TYPE":"PAYLOAD","RCS_SIZE":"LARGE","COUNTRY_CODE":"JPN","LAUNCH_DATE":"2017-06-01","SITE":"TNSTA","DECAY_DATE":null,"FILE":"5232243","GP_ID":"327403634","TLE_LINE0":"0 QZS-2","TLE_LINE1":"1 42738U 17028A   26156.52533119 -.00000153  00000-0  00000-0 0  9991","TLE_LINE2":"2 42738  39.4451 243.3265 0760589 269.1343  71.7999  1.00287038  7503"},{"CCSDS_OMM_VERS":"3.0","COMMENT":"GENERATED VIA SPACE-TRACK.ORG API","CREATION_DATE":"2026-06-06T22:36:27","ORIGINATOR":"18 SPCS","OBJECT_NAME":"QZS-2","OBJECT_ID":"2017-028A","CENTER_NAME":"EARTH","REF_FRAME":"TEME","TIME_SYSTEM":"UTC","MEAN_ELEMENT_THEORY":"SGP4","EPOCH":"2026-06-06T12:59:41.128800","MEAN_MOTION":"1.00286802","ECCENTRICITY":"0.07605310","INCLINATION":"39.4434","RA_OF_ASC_NODE":"243.3115","ARG_OF_PERICENTER":"269.1455","MEAN_ANOMALY":"78.6569","EPHEMERIS_TYPE":"0","CLASSIFICATION_TYPE":"U","NORAD_CAT_ID":"42738","ELEMENT_SET_NO":"999","REV_AT_EPOCH":"751","BSTAR":"0.00000000000000","MEAN_MOTION_DOT":"-0.00000152","MEAN_MOTION_DDOT":"0.0000000000000","SEMIMAJOR_AXIS":"42160.523","PERIOD":"1435.882","APOAPSIS":"38988.826","PERIAPSIS":"32575.949","OBJECT_TYPE":"PAYLOAD","RCS_SIZE":"LARGE","COUNTRY_CODE":"JPN","LAUNCH_DATE":"2017-06-01","SITE":"TNSTA","DECAY_DATE":null,"FILE":"5233678","GP_ID":"327626996","TLE_LINE0":"0 QZS-2","TLE_LINE1":"1 42738U 17028A   26157.54144825 -.00000152  00000-0  00000+0 0  9994","TLE_LINE2":"2 42738  39.4434 243.3115 0760531 269.1455  78.6569  1.00286802  7517"},{"CCSDS_OMM_VERS":"3.0","COMMENT":"GENERATED VIA SPACE-TRACK.ORG API","CREATION_DATE":"2026-06-07T03:17:11","ORIGINATOR":"18 SPCS","OBJECT_NAME":"QZS-2","OBJECT_ID":"2017-028A","CENTER_NAME":"EARTH","REF_FRAME":"TEME","TIME_SYSTEM":"UTC","MEAN_ELEMENT_THEORY":"SGP4","EPOCH":"2026-06-06T12:59:41.129664","MEAN_MOTION":"1.00286802","ECCENTRICITY":"0.07605310","INCLINATION":"39.4434","RA_OF_ASC_NODE":"243.3115","ARG_OF_PERICENTER":"269.1455","MEAN_ANOMALY":"78.6569","EPHEMERIS_TYPE":"0","CLASSIFICATION_TYPE":"U","NORAD_CAT_ID":"42738","ELEMENT_SET_NO":"999","REV_AT_EPOCH":"751","BSTAR":"0.00000000000000","MEAN_MOTION_DOT":"-0.00000152","MEAN_MOTION_DDOT":"0.0000000000000","SEMIMAJOR_AXIS":"42160.523","PERIOD":"1435.882","APOAPSIS":"38988.826","PERIAPSIS":"32575.949","OBJECT_TYPE":"PAYLOAD","RCS_SIZE":"LARGE","COUNTRY_CODE":"JPN","LAUNCH_DATE":"2017-06-01","SITE":"TNSTA","DECAY_DATE":null,"FILE":"5234182","GP_ID":"327689912","TLE_LINE0":"0 QZS-2","TLE_LINE1":"1 42738U 17028A   26157.54144826 -.00000152  00000-0  00000-0 0  9996","TLE_LINE2":"2 42738  39.4434 243.3115 0760531 269.1455  78.6569  1.00286802  7517"},{"CCSDS_OMM_VERS":"3.0","COMMENT":"GENERATED VIA SPACE-TRACK.ORG API","CREATION_DATE":"2026-06-07T19:26:49","ORIGINATOR":"18 SPCS","OBJECT_NAME":"QZS-2","OBJECT_ID":"2017-028A","CENTER_NAME":"EARTH","REF_FRAME":"TEME","TIME_SYSTEM":"UTC","MEAN_ELEMENT_THEORY":"SGP4","EPOCH":"2026-06-07T06:58:38.717760","MEAN_MOTION":"1.00286598","ECCENTRICITY":"0.07605970","INCLINATION":"39.4423","RA_OF_ASC_NODE":"243.3005","ARG_OF_PERICENTER":"269.1530","MEAN_ANOMALY":"349.1736","EPHEMERIS_TYPE":"0","CLASSIFICATION_TYPE":"U","NORAD_CAT_ID":"42738","ELEMENT_SET_NO":"999","REV_AT_EPOCH":"752","BSTAR":"0.00000000000000","MEAN_MOTION_DOT":"-0.00000151","MEAN_MOTION_DDOT":"0.0000000000000","SEMIMAJOR_AXIS":"42160.580","PERIOD":"1435.885","APOAPSIS":"38989.166","PERIAPSIS":"32575.724","OBJECT_TYPE":"PAYLOAD","RCS_SIZE":"LARGE","COUNTRY_CODE":"JPN","LAUNCH_DATE":"2017-06-01","SITE":"TNSTA","DECAY_DATE":null,"FILE":"5234986","GP_ID":"327815155","TLE_LINE0":"0 QZS-2","TLE_LINE1":"1 42738U 17028A   26158.29072590 -.00000151  00000-0  00000+0 0  9995","TLE_LINE2":"2 42738  39.4423 243.3005 0760597 269.1530 349.1736  1.00286598  7524"}]